ATLAS CENTAUR 2         
1 00694U 63047A   26093.14642707  .00004212  00000+0  50259-3 0  9992
2 00694  30.3579  58.9541 0547197 295.8372  58.6783 14.12178510135083
THOR AGENA D R/B        
1 00733U 64002A   26093.50097368  .00000334  00000+0  13606-3 0  9991
2 00733  99.1209 108.1901 0032856 184.5207 175.5683 14.34034136241850
SL-3 R/B                
1 00877U 64053B   26093.53334767  .00000472  00000+0  11527-3 0  9999
2 00877  65.0756 258.3970 0080585 284.4060  74.8106 14.61387074270429
SL-8 R/B                
1 02802U 67045B   26093.55680164  .00000480  00000+0  14027-3 0  9997
2 02802  74.0103 301.6486 0065007 302.4581  57.0301 14.45642914 92612
SL-8 R/B                
1 03230U 68040B   26093.53171839  .00006422  00000+0  47155-3 0  9991
2 03230  74.0290 262.9225 0023345  76.5674 283.8115 15.03438826 93743
OAO 2                   
1 03597U 68110A   26093.20456574  .00000404  00000+0  11395-3 0  9992
2 03597  34.9922 128.3459 0005270  29.0054 331.0929 14.47322613 22656
ISIS 1                  
1 03669U 69009A   26093.14579755  .00000200  00000+0  13063-3 0  9998
2 03669  88.4495 152.6385 1707800  39.8277 331.6329 11.30420686351291
SERT 2                  
1 04327U 70009A   26093.45023409  .00000035  00000+0  10458-3 0  9997
2 04327  99.2794  35.1934 0005747  99.3141   9.9496 13.58732365783258
SL-3 R/B                
1 05118U 71028B   26093.50847475  .00063220  00000+0  67679-3 0  9993
2 05118  81.2384  21.3286 0015199 184.5807 175.5311 15.63465694992544
ASTEX 1                 
1 05560U 71089A   26093.23869159  .00000792  00000+0  20126-3 0  9995
2 05560  92.7084 159.6930 0015717  10.5334 349.6198 14.50796481865866
SL-8 R/B                
1 05730U 71119B   26093.49206368  .00011745  00000+0  61310-3 0  9993
2 05730  73.8841 129.3429 0546047  90.7186 275.6538 14.38331306659058
OAO 3 (COPERNICUS)      
1 06153U 72065A   26093.48352936  .00000544  00000+0  11585-3 0  9990
2 06153  35.0046 156.0505 0006669 358.3210  18.8399 14.60019052849823
